start=new Date('2022-09-27T00:00:00.000Z').valueOf();
sats=[{"APOAPSIS":"540.998","RA_OF_ASC_NODE":"234.7613","CLASSIFICATION_TYPE":"U","COUNTRY_CODE":"US","TLE_LINE1":"1 51772U 22017E   22269.84874872  .00002271  00000-0  16072-3 0  9994","PERIAPSIS":"538.480","CENTER_NAME":"EARTH","OBJECT_TYPE":"PAYLOAD","LAUNCH_DATE":"2022-02-25","MEAN_ANOMALY":"309.5402","TLE_LINE2":"2 51772  53.2166 234.7613 0001820  50.5751 309.5402 15.08842134 32405","TIME_SYSTEM":"UTC","PERIOD":"95.437","MEAN_MOTION_DOT":"0.00002271","SEMIMAJOR_AXIS":"6917.874","DECAY_DATE":null,"EPOCH":"2022-09-26T20:22:11.889408","REV_AT_EPOCH":"3240","ARG_OF_PERICENTER":"50.5751","ELEMENT_SET_NO":"999","OBJECT_ID":"2022-017E","GP_ID":"213600908","SITE":"AFWTR","OBJECT_NAME":"STARLINK-3623","INCLINATION":"53.2166","RCS_SIZE":"LARGE","REF_FRAME":"TEME","MEAN_ELEMENT_THEORY":"SGP4","MEAN_MOTION":"15.08842134","MEAN_MOTION_DDOT":"0.0000000000000","EPHEMERIS_TYPE":"0","NORAD_CAT_ID":"51772","FILE":"3584555","ECCENTRICITY":"0.00018200","BSTAR":"0.00016072000000"},{"TIME_SYSTEM":"UTC","TLE_LINE2":"2 51773  53.2165 234.7234 0002057  53.8104 306.3078 15.08834171 32412","MEAN_MOTION_DOT":"-0.00001325","PERIOD":"95.438","SEMIMAJOR_AXIS":"6917.898","REV_AT_EPOCH":"3241","EPOCH":"2022-09-26T20:32:48.680736","DECAY_DATE":null,"OBJECT_TYPE":"PAYLOAD","MEAN_ANOMALY":"306.3078","LAUNCH_DATE":"2022-02-25","COUNTRY_CODE":"US","CLASSIFICATION_TYPE":"U","PERIAPSIS":"538.340","TLE_LINE1":"1 51773U 22017F   22269.85611899 -.00001325  00000-0 -65186-4 0  9996","CENTER_NAME":"EARTH","RA_OF_ASC_NODE":"234.7234","APOAPSIS":"541.186","ECCENTRICITY":"0.00020570","BSTAR":"-0.00006518600000","EPHEMERIS_TYPE":"0","MEAN_MOTION_DDOT":"0.0000000000000","MEAN_MOTION":"15.08834171","NORAD_CAT_ID":"51773","FILE":"3584555","OBJECT_NAME":"STARLINK-3624","RCS_SIZE":"LARGE","INCLINATION":"53.2165","REF_FRAME":"TEME","MEAN_ELEMENT_THEORY":"SGP4","ELEMENT_SET_NO":"999","ARG_OF_PERICENTER":"53.8104","OBJECT_ID":"2022-017F","SITE":"AFWTR","GP_ID":"213599659"},{"RCS_SIZE":"LARGE","INCLINATION":"53.2172","OBJECT_NAME":"STARLINK-3629","MEAN_ELEMENT_THEORY":"SGP4","REF_FRAME":"TEME","OBJECT_ID":"2022-017G","ELEMENT_SET_NO":"999","ARG_OF_PERICENTER":"51.1783","SITE":"AFWTR","GP_ID":"213545112","BSTAR":"0.00005500000000","ECCENTRICITY":"0.00022730","EPHEMERIS_TYPE":"0","MEAN_MOTION_DDOT":"0.0000000000000","MEAN_MOTION":"15.08840900","NORAD_CAT_ID":"51774","FILE":"3584345","COUNTRY_CODE":"US","CLASSIFICATION_TYPE":"U","CENTER_NAME":"EARTH","PERIAPSIS":"538.170","TLE_LINE1":"1 51774U 22017G   22269.17899075  .00000587  00000-0  55000-4 0  9997","RA_OF_ASC_NODE":"237.7669","APOAPSIS":"541.315","MEAN_MOTION_DOT":"0.00000587","PERIOD":"95.437","TIME_SYSTEM":"UTC","TLE_LINE2":"2 51774  53.2172 237.7669 0002273  51.1783 308.9412 15.08840900 32271","EPOCH":"2022-09-26T04:17:44.800800","REV_AT_EPOCH":"3227","DECAY_DATE":null,"SEMIMAJOR_AXIS":"6917.878","OBJECT_TYPE":"PAYLOAD","MEAN_ANOMALY":"308.9412","LAUNCH_DATE":"2022-02-25"},{"EPOCH":"2022-09-26T07:44:25.487808","REV_AT_EPOCH":"3233","DECAY_DATE":null,"SEMIMAJOR_AXIS":"6917.908","MEAN_MOTION_DOT":"-0.00000483","PERIOD":"95.438","TIME_SYSTEM":"UTC","TLE_LINE2":"2 51775  53.2179 237.1282 0002224  46.4104 313.7073 15.08830852 32333","MEAN_ANOMALY":"313.7073","LAUNCH_DATE":"2022-02-25","OBJECT_TYPE":"PAYLOAD","CENTER_NAME":"EARTH","PERIAPSIS":"538.235","TLE_LINE1":"1 51775U 22017H   22269.32251722 -.00000483  00000-0 -12255-4 0  9998","COUNTRY_CODE":"US","CLASSIFICATION_TYPE":"U","RA_OF_ASC_NODE":"237.1282","APOAPSIS":"541.312","BSTAR":"-0.00001225500000","ECCENTRICITY":"0.00022240","NORAD_CAT_ID":"51775","FILE":"3584345","EPHEMERIS_TYPE":"0","MEAN_MOTION_DDOT":"0.0000000000000","MEAN_MOTION":"15.08830852","MEAN_ELEMENT_THEORY":"SGP4","REF_FRAME":"TEME","INCLINATION":"53.2179","RCS_SIZE":"LARGE","OBJECT_NAME":"STARLINK-3620","SITE":"AFWTR","GP_ID":"213543880","OBJECT_ID":"2022-017H","ELEMENT_SET_NO":"999","ARG_OF_PERICENTER":"46.4104"},{"FILE":"3584345","NORAD_CAT_ID":"51776","MEAN_MOTION":"15.08836304","MEAN_MOTION_DDOT":"0.0000000000000","EPHEMERIS_TYPE":"0","BSTAR":"0.00000478500000","ECCENTRICITY":"0.00010360","GP_ID":"213544128","SITE":"AFWTR","OBJECT_ID":"2022-017J","ARG_OF_PERICENTER":"95.2573","ELEMENT_SET_NO":"999","MEAN_ELEMENT_THEORY":"SGP4","REF_FRAME":"TEME","RCS_SIZE":"LARGE","INCLINATION":"53.2161","OBJECT_NAME":"STARLINK-3608","LAUNCH_DATE":"2022-02-25","MEAN_ANOMALY":"264.8537","OBJECT_TYPE":"PAYLOAD","DECAY_DATE":null,"REV_AT_EPOCH":"3228","EPOCH":"2022-09-26T05:47:49.812864","SEMIMAJOR_AXIS":"6917.892","PERIOD":"95.438","MEAN_MOTION_DOT":"-0.00000212","TLE_LINE2":"2 51776  53.2161 237.4984 0001036  95.2573 264.8537 15.08836304 32282","TIME_SYSTEM":"UTC","APOAPSIS":"540.473","RA_OF_ASC_NODE":"237.4984","CENTER_NAME":"EARTH","TLE_LINE1":"1 51776U 22017J   22269.24154876 -.00000212  00000-0  47850-5 0  9991","PERIAPSIS":"539.040","CLASSIFICATION_TYPE":"U","COUNTRY_CODE":"US"},{"OBJECT_ID":"2022-017K","ELEMENT_SET_NO":"999","ARG_OF_PERICENTER":"59.7018","SITE":"AFWTR","GP_ID":"213600160","RCS_SIZE":"LARGE","INCLINATION":"53.2184","OBJECT_NAME":"STARLINK-3625","MEAN_ELEMENT_THEORY":"SGP4","REF_FRAME":"TEME","EPHEMERIS_TYPE":"0","MEAN_MOTION":"15.08840640","MEAN_MOTION_DDOT":"0.0000000000000","FILE":"3584555","NORAD_CAT_ID":"51777","BSTAR":"0.00001607300000","ECCENTRICITY":"0.00019080","RA_OF_ASC_NODE":"235.6737","APOAPSIS":"541.063","COUNTRY_CODE":"US","CLASSIFICATION_TYPE":"U","CENTER_NAME":"EARTH","PERIAPSIS":"538.424","TLE_LINE1":"1 51777U 22017K   22269.64634981 -.00000032  00000-0  16073-4 0  9998","OBJECT_TYPE":"PAYLOAD","MEAN_ANOMALY":"300.4163","LAUNCH_DATE":"2022-02-25","MEAN_MOTION_DOT":"-0.00000032","PERIOD":"95.438","TIME_SYSTEM":"UTC","TLE_LINE2":"2 51777  53.2184 235.6737 0001908  59.7018 300.4163 15.08840640 32371","EPOCH":"2022-09-26T15:30:44.623584","REV_AT_EPOCH":"3237","DECAY_DATE":null,"SEMIMAJOR_AXIS":"6917.878"},{"REV_AT_EPOCH":"3227","EPOCH":"2022-09-26T06:17:02.209632","DECAY_DATE":null,"SEMIMAJOR_AXIS":"6917.911","MEAN_MOTION_DOT":"-0.00000211","PERIOD":"95.438","TIME_SYSTEM":"UTC","TLE_LINE2":"2 51778  53.2167 227.3947 0001672  49.9129 310.2010 15.08830050 32279","MEAN_ANOMALY":"310.2010","LAUNCH_DATE":"2022-02-25","OBJECT_TYPE":"PAYLOAD","CENTER_NAME":"EARTH","PERIAPSIS":"538.619","TLE_LINE1":"1 51778U 22017L   22269.26183113 -.00000211  00000-0  48168-5 0  9993","COUNTRY_CODE":"US","CLASSIFICATION_TYPE":"U","RA_OF_ASC_NODE":"227.3947","APOAPSIS":"540.932","BSTAR":"0.00000481680000","ECCENTRICITY":"0.00016720","FILE":"3584345","NORAD_CAT_ID":"51778","EPHEMERIS_TYPE":"0","MEAN_MOTION":"15.08830050","MEAN_MOTION_DDOT":"0.0000000000000","MEAN_ELEMENT_THEORY":"SGP4","REF_FRAME":"TEME","RCS_SIZE":"LARGE","INCLINATION":"53.2167","OBJECT_NAME":"STARLINK-3615","SITE":"AFWTR","GP_ID":"213545613","OBJECT_ID":"2022-017L","ELEMENT_SET_NO":"999","ARG_OF_PERICENTER":"49.9129"},{"PERIAPSIS":"538.461","TLE_LINE1":"1 51779U 22017M   22269.23786861  .00000670  00000-0  60208-4 0  9996","CENTER_NAME":"EARTH","COUNTRY_CODE":"US","CLASSIFICATION_TYPE":"U","RA_OF_ASC_NODE":"237.5105","APOAPSIS":"541.041","SEMIMAJOR_AXIS":"6917.886","EPOCH":"2022-09-26T05:42:31.847904","REV_AT_EPOCH":"3228","DECAY_DATE":null,"TIME_SYSTEM":"UTC","TLE_LINE2":"2 51779  53.2192 237.5105 0001865  48.1985 311.9166 15.08838129 32288","MEAN_MOTION_DOT":"0.00000670","PERIOD":"95.438","MEAN_ANOMALY":"311.9166","LAUNCH_DATE":"2022-02-25","OBJECT_TYPE":"PAYLOAD","REF_FRAME":"TEME","MEAN_ELEMENT_THEORY":"SGP4","OBJECT_NAME":"STARLINK-3611","RCS_SIZE":"LARGE","INCLINATION":"53.2192","SITE":"AFWTR","GP_ID":"213544382","ELEMENT_SET_NO":"999","ARG_OF_PERICENTER":"48.1985","OBJECT_ID":"2022-017M","ECCENTRICITY":"0.00018650","BSTAR":"0.00006020800000","NORAD_CAT_ID":"51779","FILE":"3584345","EPHEMERIS_TYPE":"0","MEAN_MOTION":"15.08838129","MEAN_MOTION_DDOT":"0.0000000000000"},{"BSTAR":"0.00003909100000","ECCENTRICITY":"0.00014170","NORAD_CAT_ID":"51780","FILE":"3584345","EPHEMERIS_TYPE":"0","MEAN_MOTION_DDOT":"0.0000000000000","MEAN_MOTION":"15.08837502","MEAN_ELEMENT_THEORY":"SGP4","REF_FRAME":"TEME","INCLINATION":"53.2166","RCS_SIZE":"LARGE","OBJECT_NAME":"STARLINK-3617","SITE":"AFWTR","GP_ID":"213544629","OBJECT_ID":"2022-017N","ELEMENT_SET_NO":"999","ARG_OF_PERICENTER":"76.1228","EPOCH":"2022-09-26T05:28:00.893568","REV_AT_EPOCH":"3213","DECAY_DATE":null,"SEMIMAJOR_AXIS":"6917.888","MEAN_MOTION_DOT":"0.00000334","PERIOD":"95.438","TIME_SYSTEM":"UTC","TLE_LINE2":"2 51780  53.2166 237.5602 0001417  76.1228 283.9921 15.08837502 32132","MEAN_ANOMALY":"283.9921","LAUNCH_DATE":"2022-02-25","OBJECT_TYPE":"PAYLOAD","CENTER_NAME":"EARTH","PERIAPSIS":"538.773","TLE_LINE1":"1 51780U 22017N   22269.22778812  .00000334  00000-0  39091-4 0  9997","COUNTRY_CODE":"US","CLASSIFICATION_TYPE":"U","RA_OF_ASC_NODE":"237.5602","APOAPSIS":"540.733"},{"FILE":"3584555","NORAD_CAT_ID":"51781","EPHEMERIS_TYPE":"0","MEAN_MOTION_DDOT":"0.0000000000000","MEAN_MOTION":"15.08834354","BSTAR":"0.00004382500000","ECCENTRICITY":"0.00019440","SITE":"AFWTR","GP_ID":"213599660","OBJECT_ID":"2022-017P","ELEMENT_SET_NO":"999","ARG_OF_PERICENTER":"47.3902","MEAN_ELEMENT_THEORY":"SGP4","REF_FRAME":"TEME","RCS_SIZE":"LARGE","INCLINATION":"53.2173","OBJECT_NAME":"STARLINK-3580","MEAN_ANOMALY":"312.7254","LAUNCH_DATE":"2022-02-25","OBJECT_TYPE":"PAYLOAD","EPOCH":"2022-09-26T15:09:33.190560","REV_AT_EPOCH":"3219","DECAY_DATE":null,"SEMIMAJOR_AXIS":"6917.898","MEAN_MOTION_DOT":"0.00000409","PERIOD":"95.438","TIME_SYSTEM":"UTC","TLE_LINE2":"2 51781  53.2173 235.7433 0001944  47.3902 312.7254 15.08834354 32195","RA_OF_ASC_NODE":"235.7433","APOAPSIS":"541.107","CENTER_NAME":"EARTH","PERIAPSIS":"538.418","TLE_LINE1":"1 51781U 22017P   22269.63163415  .00000409  00000-0  43825-4 0  9993","COUNTRY_CODE":"US","CLASSIFICATION_TYPE":"U"}];
